{
  "type": "FeatureCollection",
  "features": [
    {
      "type": "Feature",
      "properties": {
        "norad_id": 66865,
        "name": "STARLINK-36117",
        "group": "last-30-days",
        "lat": 39.330138602908136,
        "lon": 177.34501049032545,
        "alt_km": 294.6240855806591,
        "timestamp": "2025-12-13T18:50:03.174778+00:00",
        "meta_object_name": "STARLINK-36117",
        "meta_object_id": "2025-281T",
        "meta_epoch": "2025-12-13T06:29:56.977440",
        "meta_mean_motion": 15.91140315,
        "meta_eccentricity": 0.00062363,
        "meta_inclination": 43.0007,
        "meta_ra_of_asc_node": 118.9831,
        "meta_arg_of_pericenter": 247.6418,
        "meta_mean_anomaly": 112.3796,
        "meta_ephemeris_type": 0,
        "meta_classification_type": "U",
        "meta_norad_cat_id": 66865,
        "meta_element_set_no": 999,
        "meta_rev_at_epoch": 288,
        "meta_bstar": 0.0022425931,
        "meta_mean_motion_dot": 0.00735683,
        "meta_mean_motion_ddot": 0.00022427456,
        "tle_line1": "1 66865U 25281T   25347.27079835  .00735683  22427-3  22426-2 0  9991",
        "tle_line2": "2 66865  43.0007 118.9831 0006236 247.6418 112.3796 15.91140315  2884"
      },
      "geometry": {
        "type": "Point",
        "coordinates": [
          177.34501049032545,
          39.330138602908136
        ]
      }
    },
    {
      "type": "Feature",
      "properties": {
        "norad_id": 66866,
        "name": "STARLINK-36126",
        "group": "last-30-days",
        "lat": 40.3842928764643,
        "lon": -178.3285779012892,
        "alt_km": 290.1188927577132,
        "timestamp": "2025-12-13T18:50:03.174787+00:00",
        "meta_object_name": "STARLINK-36126",
        "meta_object_id": "2025-281U",
        "meta_epoch": "2025-12-13T01:58:04.276416",
        "meta_mean_motion": 15.91335279,
        "meta_eccentricity": 0.00036506,
        "meta_inclination": 43.0014,
        "meta_ra_of_asc_node": 120.149,
        "meta_arg_of_pericenter": 344.597,
        "meta_mean_anomaly": 15.4794,
        "meta_ephemeris_type": 0,
        "meta_classification_type": "U",
        "meta_norad_cat_id": 66866,
        "meta_element_set_no": 999,
        "meta_rev_at_epoch": 284,
        "meta_bstar": 0.001304503,
        "meta_mean_motion_dot": 0.00431541,
        "meta_mean_motion_ddot": 7.8577334e-05,
        "tle_line1": "1 66866U 25281U   25347.08199394  .00431541  78577-4  13045-2 0  9995",
        "tle_line2": "2 66866  43.0014 120.1490 0003650 344.5970  15.4794 15.91335279  2848"
      },
      "geometry": {
        "type": "Point",
        "coordinates": [
          -178.3285779012892,
          40.3842928764643
        ]
      }
    },
    {
      "type": "Feature",
      "properties": {
        "norad_id": 66867,
        "name": "STARLINK-36101",
        "group": "last-30-days",
        "lat": 41.24673202256013,
        "lon": -174.01243073111476,
        "alt_km": 289.56589718726536,
        "timestamp": "2025-12-13T18:50:03.174799+00:00",
        "meta_object_name": "STARLINK-36101",
        "meta_object_id": "2025-281V",
        "meta_epoch": "2025-12-13T01:57:17.169408",
        "meta_mean_motion": 15.91387471,
        "meta_eccentricity": 0.00040392,
        "meta_inclination": 43.0014,
        "meta_ra_of_asc_node": 120.1442,
        "meta_arg_of_pericenter": 347.9531,
        "meta_mean_anomaly": 12.1247,
        "meta_ephemeris_type": 0,
        "meta_classification_type": "U",
        "meta_norad_cat_id": 66867,
        "meta_element_set_no": 999,
        "meta_rev_at_epoch": 284,
        "meta_bstar": 0.0014865949,
        "meta_mean_motion_dot": 0.00493399,
        "meta_mean_motion_ddot": 0.000101243,
        "tle_line1": "1 66867U 25281V   25347.08144872  .00493399  10124-3  14866-2 0  9991",
        "tle_line2": "2 66867  43.0014 120.1442 0004039 347.9531  12.1247 15.91387471  2846"
      },
      "geometry": {
        "type": "Point",
        "coordinates": [
          -174.01243073111476,
          41.24673202256013
        ]
      }
    },
    {
      "type": "Feature",
      "properties": {
        "norad_id": 66868,
        "name": "STARLINK-36108",
        "group": "last-30-days",
        "lat": 41.30103496937509,
        "lon": -173.70326417529236,
        "alt_km": 296.3803927252238,
        "timestamp": "2025-12-13T18:50:03.174811+00:00",
        "meta_object_name": "STARLINK-36108",
        "meta_object_id": "2025-281W",
        "meta_epoch": "2025-12-13T06:27:41.841792",
        "meta_mean_motion": 15.90499704,
        "meta_eccentricity": 0.00032359,
        "meta_inclination": 43.0009,
        "meta_ra_of_asc_node": 118.9699,
        "meta_arg_of_pericenter": 246.2667,
        "meta_mean_anomaly": 113.7868,
        "meta_ephemeris_type": 0,
        "meta_classification_type": "U",
        "meta_norad_cat_id": 66868,
        "meta_element_set_no": 999,
        "meta_rev_at_epoch": 287,
        "meta_bstar": 5.5186275e-05,
        "meta_mean_motion_dot": 0.00017022,
        "meta_mean_motion_ddot": 0,
        "tle_line1": "1 66868U 25281W   25347.26923428  .00017022  00000+0  55186-4 0  9999",
        "tle_line2": "2 66868  43.0009 118.9699 0003235 246.2667 113.7868 15.90499704  2870"
      },
      "geometry": {
        "type": "Point",
        "coordinates": [
          -173.70326417529236,
          41.30103496937509
        ]
      }
    },
    {
      "type": "Feature",
      "properties": {
        "norad_id": 66869,
        "name": "STARLINK-36092",
        "group": "last-30-days",
        "lat": 42.41117343158172,
        "lon": -165.6458685404463,
        "alt_km": 289.68109737969735,
        "timestamp": "2025-12-13T18:50:03.174821+00:00",
        "meta_object_name": "STARLINK-36092",
        "meta_object_id": "2025-281X",
        "meta_epoch": "2025-12-13T01:55:45.595776",
        "meta_mean_motion": 15.91502527,
        "meta_eccentricity": 0.00041167,
        "meta_inclination": 43.0013,
        "meta_ra_of_asc_node": 120.1353,
        "meta_arg_of_pericenter": 341.7678,
        "meta_mean_anomaly": 18.3049,
        "meta_ephemeris_type": 0,
        "meta_classification_type": "U",
        "meta_norad_cat_id": 66869,
        "meta_element_set_no": 999,
        "meta_rev_at_epoch": 284,
        "meta_bstar": 0.0014316425,
        "meta_mean_motion_dot": 0.00477973,
        "meta_mean_motion_ddot": 9.5405516e-05,
        "tle_line1": "1 66869U 25281X   25347.08038884  .00477973  95406-4  14316-2 0  9995",
        "tle_line2": "2 66869  43.0013 120.1353 0004116 341.7678  18.3049 15.91502527  2847"
      },
      "geometry": {
        "type": "Point",
        "coordinates": [
          -165.6458685404463,
          42.41117343158172
        ]
      }
    },
    {
      "type": "Feature",
      "properties": {
        "norad_id": 66870,
        "name": "STARLINK-36114",
        "group": "last-30-days",
        "lat": 42.58920328977682,
        "lon": -163.69365588379674,
        "alt_km": 293.66210477932236,
        "timestamp": "2025-12-13T18:50:03.174832+00:00",
        "meta_object_name": "STARLINK-36114",
        "meta_object_id": "2025-281Y",
        "meta_epoch": "2025-12-13T06:26:11.296320",
        "meta_mean_motion": 15.91056469,
        "meta_eccentricity": 0.00049871,
        "meta_inclination": 43.0001,
        "meta_ra_of_asc_node": 118.961,
        "meta_arg_of_pericenter": 229.5903,
        "meta_mean_anomaly": 130.4538,
        "meta_ephemeris_type": 0,
        "meta_classification_type": "U",
        "meta_norad_cat_id": 66870,
        "meta_element_set_no": 999,
        "meta_rev_at_epoch": 287,
        "meta_bstar": 0.0017450127,
        "meta_mean_motion_dot": 0.00569729,
        "meta_mean_motion_ddot": 0.00013346303,
        "tle_line1": "1 66870U 25281Y   25347.26818630  .00569729  13346-3  17450-2 0  9997",
        "tle_line2": "2 66870  43.0001 118.9610 0004987 229.5903 130.4538 15.91056469  2878"
      },
      "geometry": {
        "type": "Point",
        "coordinates": [
          -163.69365588379674,
          42.58920328977682
        ]
      }
    },
    {
      "type": "Feature",
      "properties": {
        "norad_id": 66871,
        "name": "STARLINK-36095",
        "group": "last-30-days",
        "lat": 42.508270419821606,
        "lon": -143.92358614569292,
        "alt_km": 279.80632925906775,
        "timestamp": "2025-12-13T18:50:03.174844+00:00",
        "meta_object_name": "STARLINK-36095",
        "meta_object_id": "2025-281Z",
        "meta_epoch": "2025-12-13T06:24:47.413152",
        "meta_mean_motion": 15.93885984,
        "meta_eccentricity": 0.00155348,
        "meta_inclination": 42.9991,
        "meta_ra_of_asc_node": 118.9544,
        "meta_arg_of_pericenter": 285.2949,
        "meta_mean_anomaly": 74.621,
        "meta_ephemeris_type": 0,
        "meta_classification_type": "U",
        "meta_norad_cat_id": 66871,
        "meta_element_set_no": 999,
        "meta_rev_at_epoch": 287,
        "meta_bstar": 0.010670731,
        "meta_mean_motion_dot": 0.03426071,
        "meta_mean_motion_ddot": 0.013967933,
        "tle_line1": "1 66871U 25281Z   25347.26721543  .03426071  13968-1  10671-1 0  9994",
        "tle_line2": "2 66871  42.9991 118.9544 0015534 285.2949  74.6210 15.93885984  2870"
      },
      "geometry": {
        "type": "Point",
        "coordinates": [
          -143.92358614569292,
          42.508270419821606
        ]
      }
    }
  ]
}